NORAD_CAT_ID,OBJECT_NAME,OBJECT_TYPE,EPOCH,MEAN_MOTION,ECCENTRICITY,INCLINATION,RA_OF_ASC_NODE,ARG_OF_PERICENTER,MEAN_ANOMALY,BSTAR,MEAN_MOTION_DOT,MEAN_MOTION_DDOT,TLE_LINE0,TLE_LINE1,TLE_LINE2,SEMIMAJOR_AXIS,PERIOD,APOGEE,PERIGEE,DECAYED
51752.0,STARLINK-3511,PAYLOAD,2024-06-07 09:56:32,15.08835205,0.0001999,53.2121,303.3602,105.576,254.5453,7.3624e-05,8.84e-06,0.0,0 STARLINK-3511,1 51752U 22016AQ  24159.41426540  .00000884  00000-0  73624-4 0  9994,2 51752  53.2121 303.3602 0001999 105.5760 254.5453 15.08835205128168,6917.895,95.438,541.143,538.377,0.0
51752.0,STARLINK-3511,PAYLOAD,2024-06-07 16:18:04,15.08845078,0.0002902,53.2055,302.1696,96.2525,263.8798,-2.4316e-05,-6.76e-06,0.0,0 STARLINK-3511,1 51752U 22016AQ  24159.67922354 -.00000676  00000-0 -24316-4 0  9991,2 51752  53.2055 302.1696 0002902  96.2525 263.8798 15.08845078128203,6917.865,95.437,541.737,537.722,0.0
51752.0,STARLINK-3511,PAYLOAD,2024-06-08 16:08:50,15.08868267,0.0002425,53.2148,297.7122,88.8809,271.2461,-0.00014287,-2.563e-05,0.0,0 STARLINK-3511,1 51752U 22016AQ  24160.67280794 -.00002563  00000-0 -14287-3 0  9990,2 51752  53.2148 297.7122 0002425  88.8809 271.2461 15.08868267128352,6917.794,95.436,541.337,537.981,0.0
51752.0,STARLINK-3511,PAYLOAD,2024-06-09 08:02:43,15.08835476,3.91e-05,53.2203,294.7422,33.8074,326.2943,0.00017486,2.496e-05,0.0,0 STARLINK-3511,1 51752U 22016AQ  24161.33522201  .00002496  00000-0  17486-3 0  9993,2 51752  53.2203 294.7422 0000391  33.8074 326.2943 15.08835476128451,6917.894,95.438,540.03,539.489,0.0
51752.0,STARLINK-3511,PAYLOAD,2024-06-09 15:59:39,15.08841706,0.0002918,53.2278,293.2569,299.6353,60.4349,-1.7747e-05,-5.71e-06,0.0,0 STARLINK-3511,1 51752U 22016AQ  24161.66642512 -.00000571  00000-0 -17747-4 0  9992,2 51752  53.2278 293.2569 0002918 299.6353  60.4349 15.08841706127389,6917.875,95.437,541.759,537.722,0.0
51752.0,STARLINK-3511,PAYLOAD,2024-06-10 12:39:41,15.08752299,0.0001787,53.2152,289.3869,68.6191,291.4992,0.00097089,0.00015161,0.0,0 STARLINK-3511,1 51752U 22016AQ  24162.52756076  .00015161  00000-0  97089-3 0  9994,2 51752  53.2152 289.3869 0001787  68.6191 291.4992 15.08752299128633,6918.148,95.443,541.25,538.777,0.0
51752.0,STARLINK-3511,PAYLOAD,2024-06-10 14:15:04,15.08802058,0.0001443,53.2161,289.0899,70.9357,289.1791,0.00033512,5.044e-05,0.0,0 STARLINK-3511,1 51752U 22016AQ  24162.59379714  .00005044  00000-0  33512-3 0  9991,2 51752  53.2161 289.0899 0001443  70.9357 289.1791 15.08802058127529,6917.996,95.44,540.86,538.863,0.0
51752.0,STARLINK-3511,PAYLOAD,2024-06-10 15:50:26,15.08838906,7.37e-05,53.2165,288.7911,62.0386,298.0681,7.7396e-05,9.44e-06,0.0,0 STARLINK-3511,1 51752U 22016AQ  24162.66002493  .00000944  00000-0  77396-4 0  9999,2 51752  53.2165 288.7911 0000737  62.0386 298.0681 15.08838906128656,6917.884,95.438,540.259,539.239,0.0
51752.0,STARLINK-3511,PAYLOAD,2024-06-11 14:05:50,15.08842504,0.0001133,53.2185,284.6297,66.0961,294.015,0.00011815,1.593e-05,0.0,0 STARLINK-3511,1 51752U 22016AQ  24163.58738469  .00001593  00000-0  11815-3 0  9994,2 51752  53.2185 284.6297 0001133  66.0961 294.0150 15.08842504127671,6917.873,95.437,540.522,538.954,0.0
51752.0,STARLINK-3511,PAYLOAD,2024-06-12 01:13:32,15.0883326,0.0001253,53.2174,282.548,82.0425,278.071,0.00010954,1.456e-05,0.0,0 STARLINK-3511,1 51752U 22016AQ  24164.05107076  .00001456  00000-0  10954-3 0  9992,2 51752  53.2174 282.5480 0001253  82.0425 278.0710 15.08833260128861,6917.901,95.438,540.633,538.899,0.0
51752.0,STARLINK-3511,PAYLOAD,2024-06-12 12:21:15,15.08826714,0.0001389,53.2174,280.4634,85.9264,274.1887,4.9758e-05,5.04e-06,0.0,0 STARLINK-3511,1 51752U 22016AQ  24164.51475939  .00000504  00000-0  49758-4 0  9997,2 51752  53.2174 280.4634 0001389  85.9264 274.1887 15.08826714128938,6917.921,95.438,540.747,538.825,0.0
51752.0,STARLINK-3511,PAYLOAD,2024-06-12 15:32:01,15.08833538,0.000111,53.2172,279.872,91.657,268.4549,6.0674e-06,-1.91e-06,0.0,0 STARLINK-3511,1 51752U 22016AQ  24164.64723686 -.00000191  00000-0  60674-5 0  9990,2 51752  53.2172 279.8720 0001110  91.6570 268.4549 15.08833538127831,6917.9,95.438,540.533,538.997,0.0
51752.0,STARLINK-3511,PAYLOAD,2024-06-13 12:12:01,15.08844875,0.0001106,53.2174,276.0075,91.0901,269.0218,7.7076e-05,9.39e-06,0.0,0 STARLINK-3511,1 51752U 22016AQ  24165.50834790  .00000939  00000-0  77076-4 0  9997,2 51752  53.2174 276.0075 0001106  91.0901 269.0218 15.08844875129087,6917.865,95.437,540.496,538.965,0.0
51752.0,STARLINK-3511,PAYLOAD,2024-06-13 13:47:24,15.08845011,0.0001041,53.217,275.7092,92.6486,267.4625,9.8213e-05,1.276e-05,0.0,0 STARLINK-3511,1 51752U 22016AQ  24165.57458699  .00001276  00000-0  98213-4 0  9995,2 51752  53.2170 275.7092 0001041  92.6486 267.4625 15.08845011127974,6917.865,95.437,540.45,539.01,0.0
51752.0,STARLINK-3511,PAYLOAD,2024-06-14 13:38:11,15.08835286,0.0001344,53.2188,271.2473,107.8994,252.2144,8.6515e-05,1.089e-05,0.0,0 STARLINK-3511,1 51752U 22016AQ  24166.56819364  .00001089  00000-0  86515-4 0  9999,2 51752  53.2188 271.2473 0001344 107.8994 252.2144 15.08835286128125,6917.895,95.438,540.69,538.83,0.0
51752.0,STARLINK-3511,PAYLOAD,2024-06-14 16:48:58,15.08840535,0.0001236,53.2183,270.6534,105.8202,254.2926,5.2548e-05,5.49e-06,0.0,0 STARLINK-3511,1 51752U 22016AQ  24166.70067156  .00000549  00000-0  52548-4 0  9998,2 51752  53.2183 270.6534 0001236 105.8202 254.2926 15.08840535128146,6917.879,95.438,540.599,538.889,0.0
51752.0,STARLINK-3511,PAYLOAD,2024-06-15 13:28:58,15.08846309,0.0001205,53.218,266.7894,96.5356,263.5774,3.9575e-05,3.42e-06,0.0,0 STARLINK-3511,1 51752U 22016AQ  24167.56178885  .00000342  00000-0  39575-4 0  9991,2 51752  53.2180 266.7894 0001205  96.5356 263.5774 15.08846309128273,6917.861,95.437,540.56,538.893,0.0
51752.0,STARLINK-3511,PAYLOAD,2024-06-16 13:19:45,15.0884121,0.0001234,53.2186,262.3312,95.4027,264.7106,6.9726e-05,8.22e-06,0.0,0 STARLINK-3511,1 51752U 22016AQ  24168.55539064  .00000822  00000-0  69726-4 0  9995,2 51752  53.2186 262.3312 0001234  95.4027 264.7106 15.08841210128426,6917.877,95.437,540.595,538.888,0.0
51752.0,STARLINK-3511,PAYLOAD,2024-06-17 13:10:33,15.08833504,0.0001171,53.2173,257.8703,91.8628,268.2498,-1.4544e-05,-5.19e-06,0.0,0 STARLINK-3511,1 51752U 22016AQ  24169.54899980 -.00000519  00000-0 -14544-4 0  9994,2 51752  53.2173 257.8703 0001171  91.8628 268.2498 15.08833504128578,6917.9,95.438,540.575,538.955,0.0
51752.0,STARLINK-3511,PAYLOAD,2024-06-18 13:01:20,15.08842957,0.0001233,53.2175,253.4088,91.4219,268.6915,2.3292e-05,8.3e-07,0.0,0 STARLINK-3511,1 51752U 22016AQ  24170.54259464  .00000083  00000-0  23292-4 0  9997,2 51752  53.2175 253.4088 0001233  91.4219 268.6915 15.08842957129840,6917.871,95.437,540.589,538.883,0.0
51752.0,STARLINK-3511,PAYLOAD,2024-06-18 22:33:39,15.08840947,0.0001208,53.2168,251.6237,84.7191,275.3939,-1.0366e-05,-4.53e-06,0.0,0 STARLINK-3511,1 51752U 22016AQ  24170.94003694 -.00000453  00000-0 -10366-4 0  9994,2 51752  53.2168 251.6237 0001208  84.7191 275.3939 15.08840947128784,6917.877,95.437,540.578,538.907,0.0
51752.0,STARLINK-3511,PAYLOAD,2024-06-19 12:52:08,15.08833555,0.0001302,53.2171,248.9478,86.3356,273.7785,3.5776e-05,2.81e-06,0.0,0 STARLINK-3511,1 51752U 22016AQ  24171.53620393  .00000281  00000-0  35776-4 0  9990,2 51752  53.2171 248.9478 0001302  86.3356 273.7785 15.08833555129992,6917.9,95.438,540.666,538.864,0.0
51752.0,STARLINK-3511,PAYLOAD,2024-06-20 14:18:17,15.08844449,0.0001205,53.2157,244.1902,91.4147,268.6984,0.00010976,1.46e-05,0.0,0 STARLINK-3511,1 51752U 22016AQ  24172.59603531  .00001460  00000-0  10976-3 0  9996,2 51752  53.2157 244.1902 0001205  91.4147 268.6984 15.08844449129036,6917.867,95.437,540.565,538.898,0.0
51752.0,STARLINK-3511,PAYLOAD,2024-06-21 04:36:46,15.08827441,0.000139,53.2167,241.512,93.909,266.2061,0.00022938,3.363e-05,0.0,0 STARLINK-3511,1 51752U 22016AQ  24173.19220223  .00003363  00000-0  22938-3 0  9991,2 51752  53.2167 241.5120 0001390  93.9090 266.2061 15.08827441130247,6917.919,95.438,540.745,538.822,0.0
51752.0,STARLINK-3511,PAYLOAD,2024-06-21 10:58:18,15.08842495,0.000133,53.2167,240.3232,92.643,267.4714,6.7998e-05,7.95e-06,0.0,0 STARLINK-3511,1 51752U 22016AQ  24173.45715760  .00000795  00000-0  67998-4 0  9997,2 51752  53.2167 240.3232 0001330  92.6430 267.4714 15.08842495130284,6917.873,95.437,540.658,538.818,0.0
51752.0,STARLINK-3511,PAYLOAD,2024-06-22 13:59:51,15.08843465,0.0001344,53.2164,235.2678,93.1508,266.9638,1.9216e-06,-2.57e-06,0.0,0 STARLINK-3511,1 51752U 22016AQ  24174.58323770 -.00000257  00000-0  19216-5 0  9993,2 51752  53.2164 235.2678 0001344  93.1508 266.9638 15.08843465129336,6917.87,95.437,540.665,538.805,0.0
51752.0,STARLINK-3511,PAYLOAD,2024-06-23 04:18:20,15.08835126,0.0001414,53.2169,232.5914,96.6374,263.4779,-3.8878e-05,-9.07e-06,0.0,0 STARLINK-3511,1 51752U 22016AQ  24175.17940456 -.00000907  00000-0 -38878-4 0  9992,2 51752  53.2169 232.5914 0001414  96.6374 263.4779 15.08835126130549,6917.895,95.438,540.738,538.782,0.0
51752.0,STARLINK-3511,PAYLOAD,2024-06-23 10:39:53,15.08835535,0.0001419,53.217,231.4022,98.0053,262.11,-2.8627e-05,-7.43e-06,0.0,0 STARLINK-3511,1 51752U 22016AQ  24175.44436435 -.00000743  00000-0 -28627-4 0  9998,2 51752  53.2170 231.4022 0001419  98.0053 262.1100 15.08835535129461,6917.894,95.438,540.741,538.777,0.0
51752.0,STARLINK-3511,PAYLOAD,2024-06-24 02:33:44,15.08840007,0.0001359,53.2167,228.4266,101.1747,258.9398,3.8008e-05,3.17e-06,0.0,0 STARLINK-3511,1 51752U 22016AQ  24176.10675952  .00000317  00000-0  38008-4 0  9990,2 51752  53.2167 228.4266 0001359 101.1747 258.9398 15.08840007130680,6917.88,95.438,540.686,538.805,0.0
51752.0,STARLINK-3511,PAYLOAD,2024-06-24 10:30:39,15.08845204,0.0001385,53.2168,226.9412,99.9794,260.1354,8.3883e-05,1.047e-05,0.0,0 STARLINK-3511,1 51752U 22016AQ  24176.43795404  .00001047  00000-0  83883-4 0  9993,2 51752  53.2168 226.9412 0001385  99.9794 260.1354 15.08845204129614,6917.864,95.437,540.688,538.771,0.0
